H1 CPF 01  gfz 2021 03 31 12  5902 tandemx   
H2 1003001  6202 36605    2021 03 31 12 59 42 2021 04 05 00 00 42   120 1 1  0 0 0
H9
10 0 59306  72702.000000  0    5358943.972  -3758654.675   2139812.677
10 0 59306  72822.000000  0    4977793.156  -3709272.672   2977963.305
10 0 59306  72942.000000  0    4511100.927  -3587611.213   3763672.885
10 0 59306  73062.000000  0    3968298.966  -3394392.620   4483115.620
10 0 59306  73182.000000  0    3360130.049  -3131773.107   5123645.683
10 0 59306  73302.000000  0    2698427.723  -2803321.420   5674019.363
10 0 59306  73422.000000  0    1995880.279  -2413968.718   6124589.460
10 0 59306  73542.000000  0    1265782.202  -1969931.855   6467469.290
10 0 59306  73662.000000  0     521779.292  -1478611.374   6696664.714
10 0 59306  73782.000000  0    -222387.883   -948465.677   6808172.951
10 0 59306  73902.000000  0    -953137.504   -388863.950   6800047.548
10 0 59306  74022.000000  0   -1657293.204    190079.366   6672429.858
10 0 59306  74142.000000  0   -2322320.741    777686.989   6427546.812
10 0 59306  74262.000000  0   -2936550.966   1362914.841   6069674.689
10 0 59306  74382.000000  0   -3489385.799   1934558.703   5605069.410
10 0 59306  74502.000000  0   -3971484.793   2481468.742   5041863.965
10 0 59306  74622.000000  0   -4374928.309   2992768.851   4389932.012
10 0 59306  74742.000000  0   -4693354.084   3458074.895   3660719.051
10 0 59306  74862.000000  0   -4922063.461   3867707.926   2867043.815
10 0 59306  74982.000000  0   -5058094.951   4212898.430   2022873.369
10 0 59306  75102.000000  0   -5100264.251   4485976.796   1143074.540
10 0 59306  75222.000000  0   -5049167.119   4680543.503    243145.296
10 0 59306  75342.000000  0   -4907146.477   4791613.962   -661065.685
10 0 59306  75462.000000  0   -4678224.729   4815737.087  -1553647.475
10 0 59306  75582.000000  0   -4368000.015   4751082.517  -2418916.740
10 0 59306  75702.000000  0   -3983512.256   4597493.178  -3241700.641
10 0 59306  75822.000000  0   -3533081.239   4356503.288  -4007607.147
10 0 59306  75942.000000  0   -3026122.328   4031322.533  -4703275.906
10 0 59306  76062.000000  0   -2472945.807   3626787.862  -5316605.829
10 0 59306  76182.000000  0   -1884545.366   3149285.973  -5836957.813
10 0 59306  76302.000000  0   -1272378.027   2606646.184  -6255330.447
10 0 59306  76422.000000  0    -648141.003   2008006.284  -6564504.355
10 0 59306  76542.000000  0     -23550.787   1363656.397  -6759154.893
10 0 59306  76662.000000  0     589871.781    684862.495  -6835934.156
10 0 59306  76782.000000  0    1181008.885    -16326.977  -6793523.472
10 0 59306  76902.000000  0    1739343.203   -727291.038  -6632653.043
10 0 59306  77022.000000  0    2255139.954  -1435057.482  -6356089.632
10 0 59306  77142.000000  0    2719613.713  -2126533.396  -5968594.460
10 0 59306  77262.000000  0    3125077.080  -2788741.701  -5476850.747
10 0 59306  77382.000000  0    3465070.624  -3409063.763  -4889360.736
10 0 59306  77502.000000  0    3734469.177  -3975480.884  -4216307.767
10 0 59306  77622.000000  0    3929562.060  -4476808.343  -3469390.009
10 0 59306  77742.000000  0    4048108.328  -4902920.657  -2661626.784
10 0 59306  77862.000000  0    4089364.576  -5244963.052  -1807137.240
10 0 59306  77982.000000  0    4054081.515  -5495542.287   -920894.072
10 0 59306  78102.000000  0    3944470.897  -5648891.153    -18458.417
10 0 59306  78222.000000  0    3764141.784  -5701002.688    884299.495
10 0 59306  78342.000000  0    3518008.551  -5649730.382   1771487.394
10 0 59306  78462.000000  0    3212171.890  -5494849.976   2627480.993
10 0 59306  78582.000000  0    2853774.996  -5238081.929   3437206.727
10 0 59306  78702.000000  0    2450841.000  -4883075.490   4186413.415
10 0 59306  78822.000000  0    2012095.429  -4435353.781   4861927.231
10 0 59306  78942.000000  0    1546777.319  -3902221.498   5451884.609
10 0 59306  79062.000000  0    1064444.339  -3292638.113   5945939.695
10 0 59306  79182.000000  0     574774.893  -2617058.910   6335441.332
10 0 59306  79302.000000  0      87373.623  -1887249.626   6613577.565
10 0 59306  79422.000000  0    -388416.027  -1116078.157   6775488.048
10 0 59306  79542.000000  0    -843689.647   -317286.017   6818345.104
10 0 59306  79662.000000  0   -1270147.520    494757.596   6741400.081
10 0 59306  79782.000000  0   -1660245.470   1305313.976   6545995.270
10 0 59306  79902.000000  0   -2007328.183   2099541.507   6235541.844
10 0 59306  80022.000000  0   -2305743.541   2862767.027   5815464.075
10 0 59306  80142.000000  0   -2550935.523   3580757.986   5293109.952
10 0 59306  80262.000000  0   -2739515.327   4239990.828   4677629.643
10 0 59306  80382.000000  0   -2869309.119   4827911.492   3979820.894
10 0 59306  80502.000000  0   -2939380.372   5333181.977   3211943.216
10 0 59306  80622.000000  0   -2950026.241   5745907.019   2387502.976
10 0 59306  80742.000000  0   -2902748.280   6057835.068   1521013.990
10 0 59306  80862.000000  0   -2800197.769   6262529.417    627737.751
10 0 59306  80982.000000  0   -2646096.605   6355505.203   -276592.003
10 0 59306  81102.000000  0   -2445136.427   6334328.203  -1176055.168
10 0 59306  81222.000000  0   -2202857.883   6198672.019  -2054836.844
10 0 59306  81342.000000  0   -1925511.204   5950328.476  -2897515.047
10 0 59306  81462.000000  0   -1619904.672   5593176.512  -3689334.234
10 0 59306  81582.000000  0   -1293245.756   5133111.982  -4416464.629
10 0 59306  81702.000000  0    -952977.823   4577938.248  -5066240.892
10 0 59306  81822.000000  0    -606616.608   3937223.499  -5627376.268
10 0 59306  81942.000000  0    -261589.286   3222126.616  -6090150.943
10 0 59306  82062.000000  0      74920.230   2445194.645  -6446570.072
10 0 59306  82182.000000  0     396115.661   1620138.674  -6690489.423
10 0 59306  82302.000000  0     695720.621    761592.601  -6817711.651
10 0 59306  82422.000000  0     968097.351   -115143.423  -6826050.744
10 0 59306  82542.000000  0    1208349.453   -994370.698  -6715365.051
10 0 59306  82662.000000  0    1412407.237  -1860266.058  -6487557.763
10 0 59306  82782.000000  0    1577095.306  -2697158.442  -6146547.999
10 0 59306  82902.000000  0    1700182.140  -3489806.744  -5698212.293
10 0 59306  83022.000000  0    1780409.441  -4223676.924  -5150294.344
10 0 59306  83142.000000  0    1817501.405  -4885209.786  -4512280.743
10 0 59306  83262.000000  0    1812153.927  -5462074.832  -3795248.013
10 0 59306  83382.000000  0    1766003.034  -5943408.850  -3011680.554
10 0 59306  83502.000000  0    1681572.195  -6320031.457  -2175259.781
10 0 59306  83622.000000  0    1562200.848  -6584631.468  -1300627.581
10 0 59306  83742.000000  0    1411954.760  -6731920.026   -403129.618
10 0 59306  83862.000000  0    1235520.033  -6758746.378    501459.318
10 0 59306  83982.000000  0    1038083.997  -6664169.894   1397219.195
10 0 59306  84102.000000  0     825204.423  -6449489.953   2268374.195
10 0 59306  84222.000000  0     602672.585  -6118228.276   3099580.776
10 0 59306  84342.000000  0     376370.932  -5676065.775   3876205.469
10 0 59306  84462.000000  0     152130.786  -5130737.673   4584586.720
10 0 59306  84582.000000  0     -64406.057  -4491889.260   5212277.692
10 0 59306  84702.000000  0    -267918.951  -3770895.072   5748264.357
10 0 59306  84822.000000  0    -453529.630  -2980646.475   6183156.281
10 0 59306  84942.000000  0    -616911.375  -2135312.076   6509344.689
10 0 59306  85062.000000  0    -754383.689  -1250079.658   6721128.048
10 0 59306  85182.000000  0    -862990.743   -340881.618   6814807.110
10 0 59306  85302.000000  0    -940562.809    575893.058   6788746.387
10 0 59306  85422.000000  0    -985758.751   1483694.222   6643400.775
10 0 59306  85542.000000  0    -998088.785   2366108.782   6381307.884
10 0 59306  85662.000000  0    -977918.026   3207157.173   6007046.553
10 0 59306  85782.000000  0    -926450.942   3991584.240   5527161.743
10 0 59306  85902.000000  0    -845695.966   4705139.120   4950055.536
10 0 59306  86022.000000  0    -738412.014   5334840.490   4285846.613
10 0 59306  86142.000000  0    -608036.867   5869221.177   3546196.111
10 0 59306  86262.000000  0    -458599.515   6298545.003   2744107.277
10 0 59306  86382.000000  0    -294619.111   6614997.884   1893696.718
10 0 59307    102.000000  0    -120989.524   6812838.419   1009939.878
10 0 59307    222.000000  0      57145.271   6888508.067    108401.524
10 0 59307    342.000000  0     234521.984   6840699.170   -795046.173
10 0 59307    462.000000  0     405892.195   6670376.792  -1684513.131
10 0 59307    582.000000  0     566154.214   6380753.152  -2544378.998
10 0 59307    702.000000  0     710480.864   5977218.689  -3359572.821
10 0 59307    822.000000  0     834440.798   5467231.346  -4115840.243
10 0 59307    942.000000  0     934109.803   4860166.457  -4799992.555
10 0 59307   1062.000000  0    1006169.647   4167131.907  -5400132.440
10 0 59307   1182.000000  0    1047992.178   3400754.278  -5905853.008
10 0 59307   1302.000000  0    1057706.612   2574940.750  -6308408.716
10 0 59307   1422.000000  0    1034249.574   1704621.679  -6600854.562
10 0 59307   1542.000000  0     977396.834    805481.135  -6778154.555
10 0 59307   1662.000000  0     887776.519   -106322.653  -6837260.019
10 0 59307   1782.000000  0     766863.876  -1014442.618  -6777155.907
10 0 59307   1902.000000  0     616956.978  -1902628.789  -6598874.637
10 0 59307   2022.000000  0     441135.014  -2755010.124  -6305480.232
10 0 59307   2142.000000  0     243198.466  -3556372.936  -5902023.993
10 0 59307   2262.000000  0      27591.889  -4292430.848  -5395465.796
10 0 59307   2382.000000  0    -200688.185  -4950079.855  -4794564.878
10 0 59307   2502.000000  0    -436200.413  -5517636.697  -4109740.253
10 0 59307   2622.000000  0    -673178.730  -5985055.309  -3352900.314
10 0 59307   2742.000000  0    -905662.735  -6344115.642  -2537243.480
99
